{
  "type": "FeatureCollection",
  "features": [
    {
      "type": "Feature",
      "properties": {
        "OBJECT_NAME": "IRNSS-1B",
        "OBJECT_ID": "2014-017A",
        "EPOCH": "2025-11-28T20:06:06.175008",
        "MEAN_MOTION": 1.00274122,
        "ECCENTRICITY": 0.00176916,
        "INCLINATION": 28.849,
        "RA_OF_ASC_NODE": 243.8302,
        "ARG_OF_PERICENTER": 183.8746,
        "MEAN_ANOMALY": 356.8041,
        "EPHEMERIS_TYPE": 0,
        "CLASSIFICATION_TYPE": "U",
        "NORAD_CAT_ID": 39635,
        "ELEMENT_SET_NO": 999,
        "REV_AT_EPOCH": 4278,
        "BSTAR": 0,
        "MEAN_MOTION_DOT": 1.13e-06,
        "MEAN_MOTION_DDOT": 0,
        "norad_id": 39635,
        "name": "IRNSS-1B",
        "group": "gnss",
        "longitude_deg": NaN,
        "latitude_deg": NaN,
        "alt_km": NaN,
        "orbit_class": "HEO",
        "timestamp": "2025-11-30T07:29:52.809664+00:00"
      },
      "geometry": {
        "type": "Point",
        "coordinates": [
          NaN,
          NaN
        ]
      }
    },
    {
      "type": "Feature",
      "properties": {
        "OBJECT_NAME": "LUCH 5V (SDCM/PRN 141)",
        "OBJECT_ID": "2014-023A",
        "EPOCH": "2025-11-29T21:33:08.592768",
        "MEAN_MOTION": 1.00273423,
        "ECCENTRICITY": 0.0004257,
        "INCLINATION": 4.6343,
        "RA_OF_ASC_NODE": 71.6485,
        "ARG_OF_PERICENTER": 196.4048,
        "MEAN_ANOMALY": 219.0359,
        "EPHEMERIS_TYPE": 0,
        "CLASSIFICATION_TYPE": "U",
        "NORAD_CAT_ID": 39727,
        "ELEMENT_SET_NO": 999,
        "REV_AT_EPOCH": 4236,
        "BSTAR": 0,
        "MEAN_MOTION_DOT": -2.48e-06,
        "MEAN_MOTION_DDOT": 0,
        "norad_id": 39727,
        "name": "LUCH 5V (SDCM/PRN 141)",
        "group": "gnss",
        "longitude_deg": NaN,
        "latitude_deg": NaN,
        "alt_km": NaN,
        "orbit_class": "HEO",
        "timestamp": "2025-11-30T07:29:52.809671+00:00"
      },
      "geometry": {
        "type": "Point",
        "coordinates": [
          NaN,
          NaN
        ]
      }
    },
    {
      "type": "Feature",
      "properties": {
        "OBJECT_NAME": "IRNSS-1C",
        "OBJECT_ID": "2014-061A",
        "EPOCH": "2025-11-29T19:24:15.205248",
        "MEAN_MOTION": 1.00269794,
        "ECCENTRICITY": 0.0017883,
        "INCLINATION": 6.008,
        "RA_OF_ASC_NODE": 92.8788,
        "ARG_OF_PERICENTER": 3.0383,
        "MEAN_ANOMALY": 347.0876,
        "EPHEMERIS_TYPE": 0,
        "CLASSIFICATION_TYPE": "U",
        "NORAD_CAT_ID": 40269,
        "ELEMENT_SET_NO": 999,
        "REV_AT_EPOCH": 4068,
        "BSTAR": 0,
        "MEAN_MOTION_DOT": -1.38e-06,
        "MEAN_MOTION_DDOT": 0,
        "norad_id": 40269,
        "name": "IRNSS-1C",
        "group": "gnss",
        "longitude_deg": NaN,
        "latitude_deg": NaN,
        "alt_km": NaN,
        "orbit_class": "HEO",
        "timestamp": "2025-11-30T07:29:52.810152+00:00"
      },
      "geometry": {
        "type": "Point",
        "coordinates": [
          NaN,
          NaN
        ]
      }
    },
    {
      "type": "Feature",
      "properties": {
        "OBJECT_NAME": "GSAT-15 (GAGAN/PRN 139)",
        "OBJECT_ID": "2015-065A",
        "EPOCH": "2025-11-29T18:31:24.969792",
        "MEAN_MOTION": 1.00267955,
        "ECCENTRICITY": 0.0003128,
        "INCLINATION": 0.0106,
        "RA_OF_ASC_NODE": 339.1213,
        "ARG_OF_PERICENTER": 252.7594,
        "MEAN_ANOMALY": 208.3546,
        "EPHEMERIS_TYPE": 0,
        "CLASSIFICATION_TYPE": "U",
        "NORAD_CAT_ID": 41028,
        "ELEMENT_SET_NO": 999,
        "REV_AT_EPOCH": 3679,
        "BSTAR": 0,
        "MEAN_MOTION_DOT": 0,
        "MEAN_MOTION_DDOT": 0,
        "norad_id": 41028,
        "name": "GSAT-15 (GAGAN/PRN 139)",
        "group": "gnss",
        "longitude_deg": NaN,
        "latitude_deg": NaN,
        "alt_km": NaN,
        "orbit_class": "HEO",
        "timestamp": "2025-11-30T07:29:52.810835+00:00"
      },
      "geometry": {
        "type": "Point",
        "coordinates": [
          NaN,
          NaN
        ]
      }
    },
    {
      "type": "Feature",
      "properties": {
        "OBJECT_NAME": "IRNSS-1E",
        "OBJECT_ID": "2016-003A",
        "EPOCH": "2025-11-29T19:49:38.102016",
        "MEAN_MOTION": 1.00279417,
        "ECCENTRICITY": 0.0021932,
        "INCLINATION": 32.7974,
        "RA_OF_ASC_NODE": 62.6412,
        "ARG_OF_PERICENTER": 186.3345,
        "MEAN_ANOMALY": 229.0425,
        "EPHEMERIS_TYPE": 0,
        "CLASSIFICATION_TYPE": "U",
        "NORAD_CAT_ID": 41241,
        "ELEMENT_SET_NO": 999,
        "REV_AT_EPOCH": 3608,
        "BSTAR": 0,
        "MEAN_MOTION_DOT": -2.89e-06,
        "MEAN_MOTION_DDOT": 0,
        "norad_id": 41241,
        "name": "IRNSS-1E",
        "group": "gnss",
        "longitude_deg": NaN,
        "latitude_deg": NaN,
        "alt_km": NaN,
        "orbit_class": "HEO",
        "timestamp": "2025-11-30T07:29:52.811002+00:00"
      },
      "geometry": {
        "type": "Point",
        "coordinates": [
          NaN,
          NaN
        ]
      }
    },
    {
      "type": "Feature",
      "properties": {
        "OBJECT_NAME": "IRNSS-1F",
        "OBJECT_ID": "2016-015A",
        "EPOCH": "2025-11-29T14:01:35.685120",
        "MEAN_MOTION": 1.00265863,
        "ECCENTRICITY": 0.0022342,
        "INCLINATION": 4.8473,
        "RA_OF_ASC_NODE": 101.6272,
        "ARG_OF_PERICENTER": 179.1076,
        "MEAN_ANOMALY": 30.8563,
        "EPHEMERIS_TYPE": 0,
        "CLASSIFICATION_TYPE": "U",
        "NORAD_CAT_ID": 41384,
        "ELEMENT_SET_NO": 999,
        "REV_AT_EPOCH": 3566,
        "BSTAR": 0,
        "MEAN_MOTION_DOT": 1.81e-06,
        "MEAN_MOTION_DDOT": 0,
        "norad_id": 41384,
        "name": "IRNSS-1F",
        "group": "gnss",
        "longitude_deg": NaN,
        "latitude_deg": NaN,
        "alt_km": NaN,
        "orbit_class": "HEO",
        "timestamp": "2025-11-30T07:29:52.811056+00:00"
      },
      "geometry": {
        "type": "Point",
        "coordinates": [
          NaN,
          NaN
        ]
      }
    },
    {
      "type": "Feature",
      "properties": {
        "OBJECT_NAME": "IRNSS-1G",
        "OBJECT_ID": "2016-027A",
        "EPOCH": "2025-11-29T19:37:28.937856",
        "MEAN_MOTION": 1.00267928,
        "ECCENTRICITY": 0.000146,
        "INCLINATION": 4.7048,
        "RA_OF_ASC_NODE": 102.4218,
        "ARG_OF_PERICENTER": 18.3594,
        "MEAN_ANOMALY": 12.0789,
        "EPHEMERIS_TYPE": 0,
        "CLASSIFICATION_TYPE": "U",
        "NORAD_CAT_ID": 41469,
        "ELEMENT_SET_NO": 999,
        "REV_AT_EPOCH": 3518,
        "BSTAR": 0,
        "MEAN_MOTION_DOT": -3.11e-06,
        "MEAN_MOTION_DDOT": 0,
        "norad_id": 41469,
        "name": "IRNSS-1G",
        "group": "gnss",
        "longitude_deg": NaN,
        "latitude_deg": NaN,
        "alt_km": NaN,
        "orbit_class": "HEO",
        "timestamp": "2025-11-30T07:29:52.811075+00:00"
      },
      "geometry": {
        "type": "Point",
        "coordinates": [
          NaN,
          NaN
        ]
      }
    },
    {
      "type": "Feature",
      "properties": {
        "OBJECT_NAME": "EUTELSAT 117 WEST B (WAAS/PRN 131)",
        "OBJECT_ID": "2016-038B",
        "EPOCH": "2025-11-29T16:44:27.588192",
        "MEAN_MOTION": 1.00263499,
        "ECCENTRICITY": 4.26e-05,
        "INCLINATION": 0.0084,
        "RA_OF_ASC_NODE": 147.5393,
        "ARG_OF_PERICENTER": 29.5528,
        "MEAN_ANOMALY": 25.8703,
        "EPHEMERIS_TYPE": 0,
        "CLASSIFICATION_TYPE": "U",
        "NORAD_CAT_ID": 41589,
        "ELEMENT_SET_NO": 999,
        "REV_AT_EPOCH": 3466,
        "BSTAR": 0,
        "MEAN_MOTION_DOT": 1.1e-07,
        "MEAN_MOTION_DDOT": 0,
        "norad_id": 41589,
        "name": "EUTELSAT 117 WEST B (WAAS/PRN 131)",
        "group": "gnss",
        "longitude_deg": NaN,
        "latitude_deg": NaN,
        "alt_km": NaN,
        "orbit_class": "HEO",
        "timestamp": "2025-11-30T07:29:52.811152+00:00"
      },
      "geometry": {
        "type": "Point",
        "coordinates": [
          NaN,
          NaN
        ]
      }
    }
  ]
}