IRNSS-1B                
1 39635U 14017A   25332.83757147  .00000113  00000+0  00000+0 0  9999
2 39635  28.8490 243.8302 0017691 183.8746 356.8041  1.00274122 42789
LUCH-5V                 
1 39727U 14023A   25333.89801612 -.00000248  00000+0  00000+0 0  9992
2 39727   4.6343  71.6485 0004257 196.4048 219.0359  1.00273423 42367
IRNSS-1C                
1 40269U 14061A   25333.80850932 -.00000138  00000+0  00000+0 0  9995
2 40269   6.0080  92.8788 0017883   3.0383 347.0876  1.00269794 40684
GSAT-15                 
1 41028U 15065A   25333.77181678  .00000000  00000+0  00000+0 0  9991
2 41028   0.0106 339.1213 0003128 252.7594 208.3546  1.00267955 36792
IRNSS-1E                
1 41241U 16003A   25333.82613544 -.00000289  00000+0  00000+0 0  9999
2 41241  32.7974  62.6412 0021932 186.3345 229.0425  1.00279417 36086
IRNSS-1F                
1 41384U 16015A   25333.58444080  .00000181  00000+0  00000+0 0  9990
2 41384   4.8473 101.6272 0022342 179.1076  30.8563  1.00265863 35667
IRNSS-1G                
1 41469U 16027A   25333.81769604 -.00000311  00000+0  00000+0 0  9991
2 41469   4.7048 102.4218 0001460  18.3594  12.0789  1.00267928 35187
EUTELSAT 117 WEST B     
1 41589U 16038B   25333.69754153  .00000011  00000+0  00000+0 0  9991
2 41589   0.0084 147.5393 0000426  29.5528  25.8703  1.00263499 34664
